1 45703U 20035AY  23167.39206676  .00002424  00000-0  18155-3 0  9992
2 45703  53.0526 193.6617 0001075  83.3679 276.7432 15.06397004168836
1 45703U 20035AY  23167.79014544  .00002504  00000-0  18689-3 0  9998
2 45703  53.0527 191.8747 0001090  82.1953 277.9159 15.06402319168891
1 45703U 20035AY  23168.05553057  .00003072  00000-0  22499-3 0  9990
2 45703  53.0526 190.6831 0001083  81.5051 278.6061 15.06405788168528
1 45703U 20035AY  23168.45360825  .00003275  00000-0  23860-3 0  9991
2 45703  53.0521 188.8958 0001037  82.9642 277.1465 15.06409213168992
1 45703U 20035AY  23168.78534612  .00001142  00000-0  95541-4 0  9991
2 45703  53.0519 187.4065 0001004  81.5522 278.5580 15.06400922169047
1 45703U 20035AY  23169.05073632  .00000344  00000-0  41997-4 0  9991
2 45703  53.0509 186.2134 0001308  94.4482 265.6656 15.06397218168677
1 45703U 20035AY  23169.31612792 -.00001189  00000-0 -60940-4 0  9995
2 45703  53.0518 185.0237 0001113  83.6409 276.4707 15.06390280169121
1 45703U 20035AY  23169.31612792 -.00001189  00000-0 -60940-4 0  9995
2 45703  53.0518 185.0237 0001113  83.6409 276.4707 15.06390280168715
1 45703U 20035AY  23170.51037228 -.00000121  00000-0  10734-4 0  9994
2 45703  53.0535 179.6636 0001152  81.9918 278.1202 15.06397086169301
1 45703U 20035AY  23170.51037228 -.00000121  00000-0  10734-4 0  9994
2 45703  53.0535 179.6636 0001152  81.9918 278.1202 15.06397086168894
1 45703U 20035AY  23171.43923175  .00002228  00000-0  16846-3 0  9999
2 45703  53.0534 175.4934 0001169  83.3248 276.7874 15.06393723169443
1 45703U 20035AY  23172.36808343  .00002371  00000-0  17796-3 0  9995
2 45703  53.0523 171.3234 0001225  81.3824 278.7304 15.06403885169586
1 45703U 20035AY  23172.36808343  .00002371  00000-0  17796-3 0  9995
2 45703  53.0523 171.3234 0001225  81.3824 278.7304 15.06403885169171
1 45703U 20035AY  23172.69981975  .00001110  00000-0  93417-4 0  9999
2 45703  53.0522 169.8340 0001227  80.6964 279.4164 15.06399441169634
1 45703U 20035AY  23173.16425038 -.00000213  00000-0  45762-5 0  9990
2 45703  53.0527 167.7490 0001250  80.3533 279.7597 15.06394984169299
1 45703U 20035AY  23174.29213976  .00001286  00000-0  10522-3 0  9995
2 45703  53.0536 162.6860 0001264  86.4050 273.7083 15.06406461169467
1 45703U 20035AY  23174.69022581  .00000374  00000-0  44031-4 0  9999
2 45703  53.0544 160.8939 0001230  91.0570 269.0560 15.06398469169528
1 45703U 20035AY  23174.95562089  .00000360  00000-0  43097-4 0  9996
2 45703  53.0533 159.7077 0001223  87.4848 272.6280 15.06389534169561
1 45703U 20035AY  23175.68543089  .00001190  00000-0  98751-4 0  9995
2 45703  53.0535 156.4307 0001314  89.5333 270.5807 15.06399249169674
1 45703U 20035AY  23176.41523772  .00003687  00000-0  26621-3 0  9993
2 45703  53.0527 153.1543 0001326 109.3149 250.7984 15.06413197169787
1 45703U 20035AY  23177.07871874  .00000986  00000-0  85086-4 0  9995
2 45703  53.0528 150.1761 0001479  88.0657 272.0501 15.06394333169886
1 45703U 20035AY  23178.07391752  .00009300  00000-0  64219-3 0  9991
2 45703  53.0527 145.7093 0001444  84.3266 275.7887 15.06410953170033
1 45703U 20035AY  23178.60469165  .00003032  00000-0  22232-3 0  9999
2 45703  53.0526 143.3257 0001545  83.9506 276.1659 15.06404586170118
1 45703U 20035AY  23179.13547080 -.00001629  00000-0 -90483-4 0  9997
2 45703  53.0529 140.9436 0001542  92.8941 267.2225 15.06392501170193
1 45703U 20035AY  23180.19701751  .00005457  00000-0  38490-3 0  9992
2 45703  53.0527 136.1797 0001578  94.6436 265.4733 15.06407379170358
1 45703U 20035AY  23182.12107263  .00007630  00000-0  53033-3 0  9990
2 45703  53.0527 127.5397 0001226  91.7422 268.3707 15.06416276170642
1 45703U 20035AY  23183.11628720  .00000175  00000-0  30662-4 0  9997
2 45703  53.0531 123.0722 0001238  77.2754 282.8373 15.06384893170795
1 45703U 20035AY  23184.24418898  .00011444  00000-0  78583-3 0  9999
2 45703  53.0537 118.0093 0001260  77.9509 282.1621 15.06404730170967
1 45703U 20035AY  23184.50957959  .00007872  00000-0  54692-3 0  9999
2 45703  53.0534 116.8162 0001361  75.3615 284.7525 15.06391150171007
1 45703U 20035AY  23185.17305074  .00003348  00000-0  24359-3 0  9999
2 45703  53.0534 113.8395 0001295  87.8199 272.2939 15.06394967171104
1 45703U 20035AY  23186.03554893  .00012100  00000-0  82930-3 0  9995
2 45703  53.0538 109.9674 0001305  94.7379 265.3759 15.06422831171232
1 45703U 20035AY  23186.49997657 -.00002110  00000-0 -12280-3 0  9997
2 45703  53.0532 107.8811 0001258  94.8429 265.2704 15.06404947171305
1 45703U 20035AY  23187.16345310  .00004565  00000-0  32524-3 0  9992
2 45703  53.0533 104.9047 0001448  86.8415 273.2739 15.06391399171406
1 45703U 20035AY  23188.15865283  .00018423  00000-0  12517-2 0  9995
2 45703  53.0534 100.4366 0001484  87.0198 273.0961 15.06422380171559
1 45703U 20035AY  23188.68943035  .00007187  00000-0  50073-3 0  9990
2 45703  53.0525  98.0584 0002581  77.8822 282.2456 15.06410776171639
1 45703U 20035AY  23188.95481832  .00004735  00000-0  33653-3 0  9993
2 45703  53.0537  96.8632 0001640 109.3481 250.7685 15.06402357171673
1 45703U 20035AY  23190.14904563  .00013238  00000-0  90507-3 0  9997
2 45703  53.0534  91.5016 0001546 103.3120 256.8042 15.06436857171853
1 45703U 20035AY  23190.41443791 -.00003008  00000-0 -18305-3 0  9990
2 45703  53.0523  90.3119 0001922  95.6295 264.4913 15.06407482171894
1 45703U 20035AY  23191.14426191  .00004265  00000-0  30510-3 0  9992
2 45703  53.0535  87.0334 0001427  90.3140 269.8013 15.06389401172004
1 45703U 20035AY  23192.13946695  .00017649  00000-0  12003-2 0  9994
2 45703  53.0535  82.5656 0001366  88.6939 271.4206 15.06414178172158
1 45703U 20035AY  23193.40005588  .00016182  00000-0  11022-2 0  9993
2 45703  53.0537  76.9066 0000937 101.2114 258.8980 15.06417903172340
1 45703U 20035AY  23194.66064005  .00004182  00000-0  29945-3 0  9992
2 45703  53.0536  71.2478 0001352  90.2496 269.8648 15.06406458172533
1 45703U 20035AY  23194.92603307 -.00001121  00000-0 -56390-4 0  9992
2 45703  53.0537  70.0567 0001179  70.9492 289.1625 15.06381377172574
1 45703U 20035AY  23196.05393727  .00019835  00000-0  13462-2 0  9990
2 45703  53.0542  64.9939 0001181  67.6296 292.4818 15.06414557172740
1 45703U 20035AY  23196.91645429  .00010104  00000-0  69622-3 0  9994
2 45703  53.0547  61.1219 0001106  81.0612 279.0502 15.06400455172871
1 45703U 20035AY  23197.91164942  .00017045  00000-0  11596-2 0  9998
2 45703  53.0544  56.6545 0001028  80.1562 279.9543 15.06426791173029
1 45703U 20035AY  23198.97320148  .00021664  00000-0  14687-2 0  9993
2 45703  53.0537  51.8889 0001331  82.5248 277.5892 15.06401928173186
1 45703U 20035AY  23200.36647146 -.00006344  00000-0 -40736-3 0  9995
2 45703  53.0531  45.6339 0001162 101.4935 258.6184 15.06400449173391
1 45703U 20035AY  23200.63186595 -.00011420  00000-0 -74945-3 0  9991
2 45703  53.0529  44.4428 0001332  95.3144 264.7997 15.06377830173438
1 45703U 20035AY  23201.95881806  .00020636  00000-0  13999-2 0  9992
2 45703  53.0538  38.4856 0001187  94.7015 265.4110 15.06408078173630
1 45703U 20035AY  23205.47520555  .00004732  00000-0  33645-3 0  9994
2 45703  53.0560  22.6981 0001590  65.0141 295.1013 15.06392470174572
1 45703U 20035AY  23206.47041149 -.00002643  00000-0 -15865-3 0  9997
2 45703  53.0543  18.2343 0001527  53.7804 306.3326 15.06384226174725
1 45703U 20035AY  23206.73579943  .00008080  00000-0  56077-3 0  9993
2 45703  53.0543  17.0409 0001362  72.9180 287.1958 15.06395500174760
1 45703U 20035AY  23207.59830466  .00029487  00000-0  19885-2 0  9997
2 45703  53.0543  13.1694 0001434  62.1784 297.9350 15.06432223174897
1 45703U 20035AY  23207.59830466  .00029487  00000-0  19885-2 0  9997
2 45703  53.0543  13.1694 0001434  62.1784 297.9350 15.06432223174482
1 45703U 20035AY  23208.46081441  .00015923  00000-0  10854-2 0  9992
2 45703  53.0554   9.3022 0000405 357.5103   2.5883 15.06399980175023
1 45703U 20035AY  23208.46081441  .00015923  00000-0  10854-2 0  9992
2 45703  53.0554   9.3022 0000405 357.5103   2.5883 15.06399980174617
1 45703U 20035AY  23208.72620467 -.00002756  00000-0 -16633-3 0  9992
2 45703  53.0552   8.1035 0000176 356.2423   3.8564 15.06379601175060
1 45703U 20035AY  23208.72620467 -.00002756  00000-0 -16633-3 0  9992
2 45703  53.0552   8.1035 0000176 356.2423   3.8564 15.06379601174654
1 45703U 20035AY  23209.45602801  .00013227  00000-0  90539-3 0  9995
2 45703  53.0554   4.8278 0001060  93.6217 266.4893 15.06392808175178
1 45703U 20035AY  23209.45602801  .00013227  00000-0  90539-3 0  9995
2 45703  53.0554   4.8278 0001060  93.6217 266.4893 15.06392808174762
1 45703U 20035AY  23210.11950073  .00000197  00000-0  32186-4 0  9994
2 45703  53.0545   1.8463 0002702  94.8849 265.2449 15.06390130174864
1 45703U 20035AY  23210.78295776  .00025982  00000-0  17556-2 0  9990
2 45703  53.0531 358.8712 0001082  87.6336 272.4777 15.06424768174962
1 45703U 20035AY  23210.84930160  .00034458  00000-0  23187-2 0  9995
2 45703  53.0545 358.5735 0000932 106.0883 254.0209 15.06435453174975
1 45703U 20035AY  23211.77814721  .00014766  00000-0  10072-2 0  9991
2 45703  53.0544 354.4036 0001059  97.4518 262.6591 15.06433992175114
1 45703U 20035AY  23212.10988311  .00026704  00000-0  18040-2 0  9994
2 45703  53.0563 352.9089 0001329  69.8776 290.2356 15.06417391175161
1 45703U 20035AY  23212.77336270  .00025054  00000-0  16956-2 0  9999
2 45703  53.0547 349.9370 0001165  60.1659 299.9446 15.06384639175269
1 45703U 20035AY  23214.36568240  .00020423  00000-0  13856-2 0  9991
2 45703  53.0549 342.7884 0001049  79.3722 280.7385 15.06411218175507
1 45703U 20035AY  23214.63107220  .00024118  00000-0  16328-2 0  9990
2 45703  53.0551 341.5972 0001014  73.2559 286.8541 15.06392987175544
1 45703U 20035AY  23215.82528981  .00022092  00000-0  14951-2 0  9992
2 45703  53.0552 336.2341 0000980  64.7329 295.3762 15.06455578175723
1 45703U 20035AY  23216.35608295  .00004028  00000-0  28929-3 0  9998
2 45703  53.0559 333.8551 0002293  57.7086 302.4125 15.06381294175802
